03664   12.1   0.15 K13B4 100.95931  145.00561  260.51828    3.59887  0.1345550  0.21110442   2.7934302  0 MPO279553   922  27 1951-2014 0.53 M-v 38h MPCLINUX   0000   (3664) Anneres            20140107
03665   12.9   0.15 K13B4 209.84565  279.83827  115.26614   15.07374  0.0889827  0.26212155   2.4180628  0 MPO263379   744  19 1941-2013 0.53 M-v 38h MPCLINUX   0007   (3665) Fitzgerald         20130609
03666   12.2   0.15 K13B4 121.27396   54.88017  120.38560    2.36336  0.1265410  0.17895769   3.1186680  0 MPO275471  1225  24 1938-2013 0.53 M-v 38h MPCLINUX   0000   (3666) Holman             20130901
03667   12.1   0.15 K13B4  64.10874   74.01112    0.13768   16.24670  0.2330492  0.18240754   3.0792210  0 MPO284179   731  17 1981-2014 0.54 M-v 38h MPCLINUX   0000   (3667) Anne-Marie         20140109
03668   13.1   0.15 K13B4  38.39443   32.27413  194.10139    3.07462  0.1033749  0.30449098   2.1881971  0 MPO267722  1181  19 1982-2013 0.51 M-v 38h MPCLINUX   0000   (3668) Ilfpetrov          20130727
03669   13.0   0.15 K13B4  83.13066   34.74397   90.97345    4.82694  0.0701565  0.29917462   2.2140438  0 MPO263379  1110  21 1949-2013 0.51 M-v 38h MPCLINUX   0000   (3669) Vertinskij         20130610
03670   12.2   0.15 K13B4 177.25130  138.98489  107.04059    6.45088  0.0171753  0.21706995   2.7420134  0 MPO284179  1127  21 1981-2014 0.51 M-v 38h MPCLINUX   0000   (3670) Northcott          20140120
03671   16.4   0.15 K13B4   2.39199  204.19463   82.16251   13.55019  0.5424766  0.30250931   2.1977429  0 MPO263379   452  11 1984-2013 0.61 M-h 3Eh MPCLINUX   9804   (3671) Dionysus           20130424
03672   13.0   0.15 K13B4 221.15625   32.04826   14.25179    6.29250  0.1390749  0.30544458   2.1836403  0 MPO265976   974  16 1955-2013 0.49 M-v 38h MPCLINUX   0000   (3672) Stevedberg         20130707
03673   12.8   0.15 K13B4 256.12092   45.04848   13.39481    7.08752  0.1841457  0.27433284   2.3457633  0 MPO250240  1063  19 1969-2012 0.53 M-v 38h MPCLINUX   0000   (3673) Levy               20120520
03674   12.0   0.15 K13B4 285.88011   98.20483  296.91847   21.03582  0.3747375  0.27170935   2.3608387  0 MPO233534   599  15 1963-2012 0.42 M-v 38h MPCLINUX   0005   (3674) Erbisbuhl          20120623
03675   11.1   0.15 K13B4 319.88611  174.68976  339.71691   10.84235  0.0903668  0.15899189   3.3745775  0 MPO284179   978  21 1953-2014 0.50 M-v 38h MPCLINUX   0000   (3675) Kemstach           20140202
03676   13.7   0.15 K13B4  94.24790  234.09774  359.06631    3.07346  0.0546102  0.31179207   2.1539023  0 MPO275471  1277  20 1950-2013 0.58 M-v 38h MPCLINUX   0000   (3676) Hahn               20131018
03677   13.5   0.15 K13B4 208.22990  125.17403  205.98011    4.29362  0.2013959  0.28904084   2.2654957  0 MPO284179   938  19 1974-2014 0.58 M-v 38h MPCLINUX   0000   (3677) Magnusson          20140128
03678   12.5   0.15 K13B4 204.16745   51.56423  142.02946    8.28355  0.1891898  0.24172894   2.5522132  0 MPO279553  1244  21 1950-2014 0.52 M-v 38h MPCLINUX   0000   (3678) Mongmanwai         20140107
03679   13.4   0.15 K13B4 147.43682   64.00889  309.26290    3.85226  0.2209368  0.30285116   2.1960887  0 MPO279553   994  23 1950-2014 0.51 M-v 38h MPCLINUX   0000   (3679) Condruses          20140107
03680   12.7   0.15 K13B4 148.03573   95.68190   26.11209    5.50309  0.0629888  0.29681183   2.2257784  0 MPO265976  1084  18 1971-2013 0.52 M-v 38h MPCLINUX   0000   (3680) Sasha              20130708
03681   13.3   0.15 K13B4 302.88445  172.46957  133.01573    4.06589  0.1849347  0.29609007   2.2293939  0 MPO263379  1073  21 1947-2013 0.53 M-v 38h MPCLINUX   0000   (3681) Boyan              20130611
03682   11.6   0.15 K13B4 225.47114  113.75538  255.61833   13.57360  0.3222280  0.21560562   2.7544147  0 MPO263379   891  22 1923-2013 0.50 M-v 38h MPCLINUX   0000   (3682) Welther            20130508
03683   11.0   0.15 K13B4 293.91405  149.82815  101.87982   15.85777  0.1175499  0.17746297   3.1361552  0 MPO284179   945  23 1931-2014 0.54 M-v 38h MPCLINUX   0000   (3683) Baumann            20140129
03684   13.8   0.15 K13B4 286.92523   67.78735   94.98914    6.81232  0.1539363  0.28478139   2.2880297  0 MPO284179   978  20 1971-2014 0.52 M-v 38h MPCLINUX   0000   (3684) Berry              20140125
03685   13.3   0.15 K13B4 327.01169  183.12061  202.88630   15.11928  0.1746604  0.22641503   2.6660352  0 MPO279553   847  20 1957-2013 0.55 M-v 38h MPCLINUX   0000   (3685) Derdenye           20131127
03686   12.3   0.15 K13B4 266.84590   78.79060  134.59613    5.71757  0.1457823  0.21687509   2.7436556  0 MPO284179  1150  24 1954-2014 0.54 M-v 38h MPCLINUX   0000   (3686) Antoku             20140127
03687   11.4   0.15 K13B4 137.75027  113.93600  224.94110   15.79364  0.1989925  0.21863215   2.7289361  0 MPO284179   945  22 1908-2014 0.53 M-v 38h MPCLINUX   0000   (3687) Dzus               20140209
03688   15.1   0.15 K13B4 236.09788  137.88294   19.97483    2.55886  0.4784204  0.17044226   3.2216958  0 MPO272654   602  11 1981-2013 0.50 M-v 38h MPCLINUX   0000   (3688) Navajo             20131002
03689   12.2   0.15 K13B4  94.27415  164.51261  202.25865    9.33336  0.0826369  0.20134953   2.8829402  0 MPO284179   878  25 1953-2014 0.53 M-v 38h MPCLINUX   0000   (3689) Yeates             20140205
03690   13.3   0.15 K13B4 244.66484   35.54980  235.28363    5.03061  0.1652049  0.29296747   2.2452073  0 MPO279553  1081  22 1955-2014 0.55 M-v 38h MPCLINUX   0000   (3690) Larson             20140111
03691   14.6   0.15 K13B4 117.16692  234.92273  348.78038   20.35954  0.2842584  0.41707318   1.7741672  0 MPO284179  1114  19 1975-2014 0.47 M-v 38h MPCLINUX   1804   (3691) Bede               20140121
03692   13.2   0.15 K13B4   0.31361    9.90961  219.59155   11.41039  0.1500035  0.21941905   2.7224077  0 MPO267722   834  19 1937-2013 0.53 M-v 38h MPCLINUX   0000   (3692) Rickman            20130724
03693   11.6   0.15 K13B4 218.42892  184.83814  178.89363   14.92356  0.2048327  0.17672420   3.1448893  0 MPO284179   984  22 1954-2014 0.52 M-v 38h MPCLINUX   0000   (3693) Barringer          20140209
03694   10.4   0.15 K13B4 251.70289   80.78079  311.09854    4.97599  0.2065299  0.12625193   3.9352956  0 MPO265976   981  21 1960-2013 0.56 M-v 38h MPCLINUX   0008   (3694) Sharon             20130630
03695   13.8   0.15 K13B4  60.90348  197.20583  177.15994    7.43895  0.2313415  0.27357815   2.3500753  0 MPO284179   875  22 1951-2014 0.57 M-v 38h MPCLINUX   0000   (3695) Fiala              20140205
03696   12.3   0.15 K13B4  21.81367   16.56226  312.61363   10.15890  0.1504317  0.17908933   3.1171395  0 MPO284179   777  21 1977-2014 0.54 M-v 38h MPCLINUX   0000   (3696) Herald             20140120
03697   13.6   0.15 K13B4  43.43751  186.34394  351.48403    6.74202  0.0426299  0.27049123   2.3679213  0 MPO263379   957  21 1933-2013 0.56 M-v 38h MPCLINUX   0000   (3697) Guyhurst           20130611
03698   12.8   0.15 K13B4 289.62032  180.64409  132.84342    3.52567  0.1924579  0.29306192   2.2447249  0 MPO263379  1111  22 1957-2013 0.55 M-v 38h MPCLINUX   0000   (3698) Manning            20130611
03699   12.8   0.15 K13B4 346.42715  232.04930   95.08900    5.71732  0.1869971  0.26533581   2.3984949  0 MPO270210  1107  22 1954-2013 0.51 M-v 38h MPCLINUX   0000   (3699) Milbourn           20130908
03700   12.5   0.15 K13B4 232.86535  153.13545  289.20906   12.12385  0.2252669  0.26253282   2.4155368  0 MPO233534   724  16 1973-2012 0.47 M-v 38h MPCLINUX   0007   (3700) Geowilliams        20120619
03701   12.4   0.15 K13B4 134.06230  297.82450  115.62538    4.91570  0.0932869  0.21064876   2.7974571  0 MPO284179  1193  26 1952-2014 0.52 M-v 38h MPCLINUX   0000   (3701) Purkyne            20140126
03702   11.5   0.15 K13B4  23.05758  254.72197  119.95653   15.64896  0.2358346  0.23232253   2.6206468  0 MPO279553   924  21 1951-2014 0.51 M-v 38h MPCLINUX   0000   (3702) Trubetskaya        20140104
03703   14.0   0.15 K13B4 322.46989  151.88206  172.95779    6.73829  0.1344656  0.27683972   2.3315807  0 MPO270210  1121  19 1953-2013 0.57 M-v 38h MPCLINUX   0000   (3703) Volkonskaya        20130820
03704   12.5   0.15 K13B4 348.13006   37.48086  233.76273    5.89039  0.0512017  0.26339486   2.4102635  0 MPO265976  1100  22 1954-2013 0.52 M-v 38h MPCLINUX   0000   (3704) Gaoshiqi           20130707
03705   12.3   0.15 K13B4 264.63063  234.73763  154.45349    1.39788  0.1721983  0.17819925   3.1275107  0 MPO265976  1198  28 1948-2013 0.57 M-v 38h MPCLINUX   0000   (3705) Hotellasilla       20130708
03706   13.6   0.15 K13B4 279.89501  310.38280  137.07249    3.50792  0.0976381  0.30424928   2.1893558  0 MPO279553  1193  21 1950-2013 0.56 M-v 38h MPCLINUX   0000   (3706) Sinnott            20131230
03707   12.2   0.15 K13B4 349.77390  143.53335  281.28769   12.56928  0.1577445  0.23312878   2.6146012  0 MPO284179   813  20 1934-2014 0.49 M-v 38h MPCLINUX   0000   (3707) Schroter           20140129
03708    9.1   0.15 K13B4  43.97910   57.60812  291.17161   13.37343  0.1595308  0.08280812   5.2129965  0 MPO284179   760  22 1930-2014 0.55 M-v 38h MPCLINUX   0009   (3708) 1974 FV1           20140201
03709    9.0   0.15 K13B4  69.88476  247.99230  187.14911   19.61755  0.0610744  0.08199837   5.2472597  0 MPO284179   700  23 1985-2014 0.59 M-v 38h MPCLINUX   0009   (3709) Polypoites         20140210
03710   12.5   0.15 K13B4 306.56996  127.35201  198.87366   13.80035  0.1620513  0.21744663   2.7388459  0 MPO263379   851  21 1978-2013 0.52 M-v 38h MPCLINUX   0000   (3710) Bogoslovskij       20130516
03711   12.8   0.15 K13B4 290.48849  123.02064  312.72012   11.79414  0.1656505  0.22761610   2.6566483  0 MPO279553   757  16 1983-2013 0.51 M-v 38h MPCLINUX   0000   (3711) Ellensburg         20131204
03712   11.5   0.15 K13B4 129.11346  200.69984  287.94320   31.68592  0.2543283  0.21762090   2.7373835  0 MPO231428   603  15 1984-2012 0.51 M-v 38h MPCLINUX   0000   (3712) Kraft              20120523
